start=new Date('2023-01-08T00:00:00.000Z').valueOf();
sats=[{"OBJECT_TYPE":"PAYLOAD","DECAY_DATE":null,"LAUNCH_DATE":"2022-09-19","NORAD_CAT_ID":"53866","CENTER_NAME":"EARTH","GP_ID":"222393415","SEMIMAJOR_AXIS":"6727.832","RA_OF_ASC_NODE":"73.6016","SITE":"AFETR","MEAN_ANOMALY":"51.4840","RCS_SIZE":"LARGE","TIME_SYSTEM":"UTC","MEAN_MOTION_DDOT":"0.0000000000000","PERIOD":"91.532","COUNTRY_CODE":"US","MEAN_MOTION":"15.73222257","ELEMENT_SET_NO":"999","OBJECT_NAME":"STARLINK-4762","ARG_OF_PERICENTER":"308.5648","CLASSIFICATION_TYPE":"U","FILE":"3735161","TLE_LINE2":"2 53866  53.2177  73.6016 0005937 308.5648  51.4840 15.73222257 18463","MEAN_MOTION_DOT":"-0.00002814","ECCENTRICITY":"0.00059370","EPOCH":"2023-01-07T04:53:11.302656","TLE_LINE1":"1 53866U 22114BA  23007.20360304 -.00002814  00000-0 -15550-4 0  9995","PERIAPSIS":"345.702","APOAPSIS":"353.691","REF_FRAME":"TEME","REV_AT_EPOCH":"1846","MEAN_ELEMENT_THEORY":"SGP4","OBJECT_ID":"2022-114BA","EPHEMERIS_TYPE":"0","INCLINATION":"53.2177","BSTAR":"-0.00001555000000"},{"OBJECT_NAME":"STARLINK-4793","ELEMENT_SET_NO":"999","MEAN_MOTION":"15.56703242","PERIOD":"92.503","TIME_SYSTEM":"UTC","MEAN_MOTION_DDOT":"0.0000000000000","COUNTRY_CODE":"US","SITE":"AFETR","MEAN_ANOMALY":"309.1761","RCS_SIZE":"LARGE","GP_ID":"222426410","CENTER_NAME":"EARTH","SEMIMAJOR_AXIS":"6775.343","RA_OF_ASC_NODE":"70.0588","LAUNCH_DATE":"2022-09-19","NORAD_CAT_ID":"53867","DECAY_DATE":null,"OBJECT_TYPE":"PAYLOAD","BSTAR":"-0.01718500000000","INCLINATION":"53.2172","OBJECT_ID":"2022-114BB","MEAN_ELEMENT_THEORY":"SGP4","EPHEMERIS_TYPE":"0","EPOCH":"2023-01-08T00:00:00.999648","REF_FRAME":"TEME","APOAPSIS":"398.092","REV_AT_EPOCH":"130","PERIAPSIS":"396.325","TLE_LINE1":"1 53867U 22114BB  23008.00001157 -.01128973  00000-0 -17185-1 0  9992","TLE_LINE2":"2 53867  53.2172  70.0588 0001304  41.3884 309.1761 15.56703242  1301","FILE":"3735488","MEAN_MOTION_DOT":"-0.01128973","ECCENTRICITY":"0.00013040","ARG_OF_PERICENTER":"41.3884","CLASSIFICATION_TYPE":"U"},{"BSTAR":"0.00000742210000","INCLINATION":"53.2163","EPHEMERIS_TYPE":"0","MEAN_ELEMENT_THEORY":"SGP4","OBJECT_ID":"2022-114BC","APOAPSIS":"352.645","REV_AT_EPOCH":"1857","REF_FRAME":"TEME","TLE_LINE1":"1 53868U 22114BC  23007.90092013  .00000417  00000-0  74221-5 0  9999","PERIAPSIS":"346.922","EPOCH":"2023-01-07T21:37:19.499232","MEAN_MOTION_DOT":"0.00000417","ECCENTRICITY":"0.00042530","TLE_LINE2":"2 53868  53.2163  70.1412 0004253   6.2330 353.8742 15.73191740 18576","FILE":"3735488","CLASSIFICATION_TYPE":"U","ARG_OF_PERICENTER":"6.2330","OBJECT_NAME":"STARLINK-4789","ELEMENT_SET_NO":"999","MEAN_MOTION":"15.73191740","COUNTRY_CODE":"US","PERIOD":"91.534","MEAN_MOTION_DDOT":"0.0000000000000","TIME_SYSTEM":"UTC","RCS_SIZE":"LARGE","MEAN_ANOMALY":"353.8742","SITE":"AFETR","RA_OF_ASC_NODE":"70.1412","SEMIMAJOR_AXIS":"6727.919","CENTER_NAME":"EARTH","GP_ID":"222426178","LAUNCH_DATE":"2022-09-19","NORAD_CAT_ID":"53868","DECAY_DATE":null,"OBJECT_TYPE":"PAYLOAD"},{"EPOCH":"2023-01-08T00:00:00.999648","APOAPSIS":"398.095","REV_AT_EPOCH":"130","REF_FRAME":"TEME","TLE_LINE1":"1 53869U 22114BD  23008.00001157 -.01130035  00000-0 -17177-1 0  9997","PERIAPSIS":"396.097","OBJECT_ID":"2022-114BD","MEAN_ELEMENT_THEORY":"SGP4","EPHEMERIS_TYPE":"0","ARG_OF_PERICENTER":"33.9536","CLASSIFICATION_TYPE":"U","TLE_LINE2":"2 53869  53.2173  70.0555 0001474  33.9536 318.1285 15.56741884  1302","FILE":"3735488","ECCENTRICITY":"0.00014740","MEAN_MOTION_DOT":"-0.01130035","BSTAR":"-0.01717700000000","INCLINATION":"53.2173","CENTER_NAME":"EARTH","GP_ID":"222426867","RA_OF_ASC_NODE":"70.0555","SEMIMAJOR_AXIS":"6775.231","MEAN_ANOMALY":"318.1285","SITE":"AFETR","RCS_SIZE":"LARGE","OBJECT_TYPE":"PAYLOAD","LAUNCH_DATE":"2022-09-19","NORAD_CAT_ID":"53869","DECAY_DATE":null,"OBJECT_NAME":"STARLINK-4810","PERIOD":"92.501","MEAN_MOTION_DDOT":"0.0000000000000","TIME_SYSTEM":"UTC","COUNTRY_CODE":"US","ELEMENT_SET_NO":"999","MEAN_MOTION":"15.56741884"},{"EPOCH":"2023-01-06T18:12:36.302400","APOAPSIS":"356.457","REF_FRAME":"TEME","REV_AT_EPOCH":"1839","PERIAPSIS":"347.562","TLE_LINE1":"1 53870U 22114BE  23006.75875350 -.00400732  00000-0 -30854-2 0  9994","OBJECT_ID":"2022-114BE","MEAN_ELEMENT_THEORY":"SGP4","EPHEMERIS_TYPE":"0","ARG_OF_PERICENTER":"356.5459","CLASSIFICATION_TYPE":"U","TLE_LINE2":"2 53870  53.2143  75.7998 0006609 356.5459   3.5514 15.72411367 18392","FILE":"3734255","ECCENTRICITY":"0.00066090","MEAN_MOTION_DOT":"-0.00400732","BSTAR":"-0.00308540000000","INCLINATION":"53.2143","GP_ID":"222346715","CENTER_NAME":"EARTH","SEMIMAJOR_AXIS":"6730.145","RA_OF_ASC_NODE":"75.7998","SITE":"AFETR","MEAN_ANOMALY":"3.5514","RCS_SIZE":"LARGE","OBJECT_TYPE":"PAYLOAD","LAUNCH_DATE":"2022-09-19","NORAD_CAT_ID":"53870","DECAY_DATE":null,"OBJECT_NAME":"STARLINK-4732","PERIOD":"91.579","MEAN_MOTION_DDOT":"0.0000000000000","TIME_SYSTEM":"UTC","COUNTRY_CODE":"US","ELEMENT_SET_NO":"999","MEAN_MOTION":"15.72411367"},{"TLE_LINE1":"1 53871U 22114BF  23007.64799865 -.00004051  00000-0 -24308-4 0  9993","PERIAPSIS":"345.477","REF_FRAME":"TEME","APOAPSIS":"353.740","REV_AT_EPOCH":"1853","EPOCH":"2023-01-07T15:33:07.083360","EPHEMERIS_TYPE":"0","MEAN_ELEMENT_THEORY":"SGP4","OBJECT_ID":"2022-114BF","CLASSIFICATION_TYPE":"U","ARG_OF_PERICENTER":"301.7689","MEAN_MOTION_DOT":"-0.00004051","ECCENTRICITY":"0.00061410","FILE":"3735488","TLE_LINE2":"2 53871  53.2159  71.3972 0006141 301.7689  58.2732 15.73253292 18539","BSTAR":"-0.00002430800000","INCLINATION":"53.2159","SEMIMAJOR_AXIS":"6727.743","RA_OF_ASC_NODE":"71.3972","CENTER_NAME":"EARTH","GP_ID":"222425949","RCS_SIZE":"LARGE","SITE":"AFETR","MEAN_ANOMALY":"58.2732","OBJECT_TYPE":"PAYLOAD","DECAY_DATE":null,"NORAD_CAT_ID":"53871","LAUNCH_DATE":"2022-09-19","OBJECT_NAME":"STARLINK-4740","COUNTRY_CODE":"US","MEAN_MOTION_DDOT":"0.0000000000000","TIME_SYSTEM":"UTC","PERIOD":"91.530","MEAN_MOTION":"15.73253292","ELEMENT_SET_NO":"999"},{"OBJECT_NAME":"STARLINK-5028","COUNTRY_CODE":"US","TIME_SYSTEM":"UTC","MEAN_MOTION_DDOT":"0.0000000000000","PERIOD":"95.438","MEAN_MOTION":"15.08838096","ELEMENT_SET_NO":"999","RA_OF_ASC_NODE":"118.9144","SEMIMAJOR_AXIS":"6917.886","GP_ID":"222426641","CENTER_NAME":"EARTH","RCS_SIZE":"LARGE","SITE":"AFETR","MEAN_ANOMALY":"320.4423","OBJECT_TYPE":"PAYLOAD","DECAY_DATE":null,"NORAD_CAT_ID":"53886","LAUNCH_DATE":"2022-09-24","BSTAR":"-0.00005108800000","INCLINATION":"53.2171","TLE_LINE1":"1 53886U 22119A   23007.55722678 -.00001101  00000-0 -51088-4 0  9990","PERIAPSIS":"538.332","REV_AT_EPOCH":"1699","APOAPSIS":"541.170","REF_FRAME":"TEME","EPOCH":"2023-01-07T13:22:24.393792","EPHEMERIS_TYPE":"0","MEAN_ELEMENT_THEORY":"SGP4","OBJECT_ID":"2022-119A","CLASSIFICATION_TYPE":"U","ARG_OF_PERICENTER":"39.6719","ECCENTRICITY":"0.00020510","MEAN_MOTION_DOT":"-0.00001101","FILE":"3735488","TLE_LINE2":"2 53886  53.2171 118.9144 0002051  39.6719 320.4423 15.08838096 16993"},{"MEAN_MOTION_DDOT":"0.0000000000000","TIME_SYSTEM":"UTC","PERIOD":"95.438","COUNTRY_CODE":"US","MEAN_MOTION":"15.08838151","ELEMENT_SET_NO":"999","OBJECT_NAME":"STARLINK-5029","OBJECT_TYPE":"PAYLOAD","DECAY_DATE":null,"NORAD_CAT_ID":"53887","LAUNCH_DATE":"2022-09-24","GP_ID":"222427326","CENTER_NAME":"EARTH","SEMIMAJOR_AXIS":"6917.886","RA_OF_ASC_NODE":"119.7362","MEAN_ANOMALY":"326.8986","SITE":"AFETR","RCS_SIZE":"LARGE","INCLINATION":"53.2177","BSTAR":"0.00004806200000","ARG_OF_PERICENTER":"33.2135","CLASSIFICATION_TYPE":"U","FILE":"3735488","TLE_LINE2":"2 53887  53.2177 119.7362 0002065  33.2135 326.8986 15.08838151 16961","MEAN_MOTION_DOT":"0.00000477","ECCENTRICITY":"0.00020650","EPOCH":"2023-01-07T08:20:19.122720","PERIAPSIS":"538.322","TLE_LINE1":"1 53887U 22119B   23007.34744355  .00000477  00000-0  48062-4 0  9995","APOAPSIS":"541.180","REV_AT_EPOCH":"1696","REF_FRAME":"TEME","MEAN_ELEMENT_THEORY":"SGP4","OBJECT_ID":"2022-119B","EPHEMERIS_TYPE":"0"},{"COUNTRY_CODE":"US","PERIOD":"95.439","TIME_SYSTEM":"UTC","MEAN_MOTION_DDOT":"0.0000000000000","ELEMENT_SET_NO":"999","MEAN_MOTION":"15.08822063","OBJECT_NAME":"STARLINK-5034","OBJECT_TYPE":"PAYLOAD","NORAD_CAT_ID":"53888","LAUNCH_DATE":"2022-09-24","DECAY_DATE":null,"RA_OF_ASC_NODE":"118.2945","SEMIMAJOR_AXIS":"6917.935","CENTER_NAME":"EARTH","GP_ID":"222427554","RCS_SIZE":"LARGE","SITE":"AFETR","MEAN_ANOMALY":"262.0765","INCLINATION":"53.2187","BSTAR":"-0.00008128300000","CLASSIFICATION_TYPE":"U","ARG_OF_PERICENTER":"98.0331","MEAN_MOTION_DOT":"-0.00001580","ECCENTRICITY":"0.00009170","TLE_LINE2":"2 53888  53.2187 118.2945 0000917  98.0331 262.0765 15.08822063 17013","FILE":"3735488","APOAPSIS":"540.435","REF_FRAME":"TEME","REV_AT_EPOCH":"1701","PERIAPSIS":"539.166","TLE_LINE1":"1 53888U 22119C   23007.68605205 -.00001580  00000-0 -81283-4 0  9993","EPOCH":"2023-01-07T16:27:54.897120","EPHEMERIS_TYPE":"0","OBJECT_ID":"2022-119C","MEAN_ELEMENT_THEORY":"SGP4"},{"INCLINATION":"53.2184","BSTAR":"-0.00006306300000","CLASSIFICATION_TYPE":"U","ARG_OF_PERICENTER":"42.3887","ECCENTRICITY":"0.00019810","MEAN_MOTION_DOT":"-0.00001292","TLE_LINE2":"2 53889  53.2184 118.2720 0001981  42.3887 317.7258 15.08838804 17017","FILE":"3735488","REF_FRAME":"TEME","APOAPSIS":"541.119","REV_AT_EPOCH":"1701","PERIAPSIS":"538.379","TLE_LINE1":"1 53889U 22119D   23007.68234183 -.00001292  00000-0 -63063-4 0  9993","EPOCH":"2023-01-07T16:22:34.334112","EPHEMERIS_TYPE":"0","OBJECT_ID":"2022-119D","MEAN_ELEMENT_THEORY":"SGP4","COUNTRY_CODE":"US","PERIOD":"95.438","MEAN_MOTION_DDOT":"0.0000000000000","TIME_SYSTEM":"UTC","ELEMENT_SET_NO":"999","MEAN_MOTION":"15.08838804","OBJECT_NAME":"STARLINK-5031","OBJECT_TYPE":"PAYLOAD","LAUNCH_DATE":"2022-09-24","NORAD_CAT_ID":"53889","DECAY_DATE":null,"SEMIMAJOR_AXIS":"6917.884","RA_OF_ASC_NODE":"118.2720","GP_ID":"222426412","CENTER_NAME":"EARTH","RCS_SIZE":"LARGE","SITE":"AFETR","MEAN_ANOMALY":"317.7258"}];
